1 39771U 14029F   23171.82959965  .00003347  00000-0  29441-3 0  9990
2 39771  98.1193  90.8382 0014839 221.8656 138.1431 14.97181013494503